{
  "type": "FeatureCollection",
  "features": [
    {
      "type": "Feature",
      "properties": {
        "norad_id": 36559,
        "name": "COSMOS 2251 DEB",
        "group": "cosmos-2251-debris",
        "lat": -26.965797193836952,
        "lon": -159.25022924818845,
        "alt_km": 1095.8742705949744,
        "timestamp": "2025-12-11T05:00:26.705749+00:00",
        "meta_object_name": "COSMOS 2251 DEB",
        "meta_object_id": "1993-036BDV",
        "meta_epoch": "2025-12-09T02:07:20.280288",
        "meta_mean_motion": 13.95143806,
        "meta_eccentricity": 0.02599602,
        "meta_inclination": 74.1299,
        "meta_ra_of_asc_node": 16.0496,
        "meta_arg_of_pericenter": 49.9692,
        "meta_mean_anomaly": 312.3935,
        "meta_ephemeris_type": 0,
        "meta_classification_type": "U",
        "meta_norad_cat_id": 36559,
        "meta_element_set_no": 999,
        "meta_rev_at_epoch": 81043,
        "meta_bstar": 0.0028021544,
        "meta_mean_motion_dot": 4.995e-05,
        "meta_mean_motion_ddot": 0,
        "tle_line1": "1 36559U 93036BDV 25343.08842917  .00004995  00000+0  28022-2 0  9997",
        "tle_line2": "2 36559  74.1299  16.0496 0259960  49.9692 312.3935 13.95143806810430"
      },
      "geometry": {
        "type": "Point",
        "coordinates": [
          -159.25022924818845,
          -26.965797193836952
        ]
      }
    },
    {
      "type": "Feature",
      "properties": {
        "norad_id": 36614,
        "name": "COSMOS 2251 DEB",
        "group": "cosmos-2251-debris",
        "lat": 30.49830000699861,
        "lon": -172.77334599517656,
        "alt_km": 699.8275475174842,
        "timestamp": "2025-12-11T05:00:26.705759+00:00",
        "meta_object_name": "COSMOS 2251 DEB",
        "meta_object_id": "1993-036BEC",
        "meta_epoch": "2025-12-09T19:58:34.750560",
        "meta_mean_motion": 14.60202998,
        "meta_eccentricity": 0.00162232,
        "meta_inclination": 74.0212,
        "meta_ra_of_asc_node": 180.1387,
        "meta_arg_of_pericenter": 250.2574,
        "meta_mean_anomaly": 109.6842,
        "meta_ephemeris_type": 0,
        "meta_classification_type": "U",
        "meta_norad_cat_id": 36614,
        "meta_element_set_no": 999,
        "meta_rev_at_epoch": 65570,
        "meta_bstar": 0.0020039773,
        "meta_mean_motion_dot": 9.662e-05,
        "meta_mean_motion_ddot": 0,
        "tle_line1": "1 36614U 93036BEC 25343.83234665  .00009662  00000+0  20040-2 0  9995",
        "tle_line2": "2 36614  74.0212 180.1387 0016223 250.2574 109.6842 14.60202998655709"
      },
      "geometry": {
        "type": "Point",
        "coordinates": [
          -172.77334599517656,
          30.49830000699861
        ]
      }
    },
    {
      "type": "Feature",
      "properties": {
        "norad_id": 36622,
        "name": "COSMOS 2251 DEB",
        "group": "cosmos-2251-debris",
        "lat": 9.00512185006968,
        "lon": 151.0823341265678,
        "alt_km": 638.5793942305918,
        "timestamp": "2025-12-11T05:00:26.705769+00:00",
        "meta_object_name": "COSMOS 2251 DEB",
        "meta_object_id": "1993-036BEL",
        "meta_epoch": "2025-12-10T17:34:46.782624",
        "meta_mean_motion": 14.76166331,
        "meta_eccentricity": 0.00687747,
        "meta_inclination": 74.0131,
        "meta_ra_of_asc_node": 149.4115,
        "meta_arg_of_pericenter": 285.2085,
        "meta_mean_anomaly": 74.1491,
        "meta_ephemeris_type": 0,
        "meta_classification_type": "U",
        "meta_norad_cat_id": 36622,
        "meta_element_set_no": 999,
        "meta_rev_at_epoch": 66720,
        "meta_bstar": 0.0010284176,
        "meta_mean_motion_dot": 7.362e-05,
        "meta_mean_motion_ddot": 0,
        "tle_line1": "1 36622U 93036BEL 25344.73248591  .00007362  00000+0  10284-2 0  9991",
        "tle_line2": "2 36622  74.0131 149.4115 0068774 285.2085  74.1491 14.76166331667209"
      },
      "geometry": {
        "type": "Point",
        "coordinates": [
          151.0823341265678,
          9.00512185006968
        ]
      }
    },
    {
      "type": "Feature",
      "properties": {
        "norad_id": 36632,
        "name": "COSMOS 2251 DEB",
        "group": "cosmos-2251-debris",
        "lat": -7.591913627795408,
        "lon": -66.96935856320427,
        "alt_km": 737.4112232296611,
        "timestamp": "2025-12-11T05:00:26.705778+00:00",
        "meta_object_name": "COSMOS 2251 DEB",
        "meta_object_id": "1993-036BEW",
        "meta_epoch": "2025-12-08T03:50:26.997216",
        "meta_mean_motion": 14.43133085,
        "meta_eccentricity": 0.00317609,
        "meta_inclination": 74.0032,
        "meta_ra_of_asc_node": 300.8928,
        "meta_arg_of_pericenter": 49.809,
        "meta_mean_anomaly": 310.5839,
        "meta_ephemeris_type": 0,
        "meta_classification_type": "U",
        "meta_norad_cat_id": 36632,
        "meta_element_set_no": 999,
        "meta_rev_at_epoch": 65149,
        "meta_bstar": 0.0011897932,
        "meta_mean_motion_dot": 3.995e-05,
        "meta_mean_motion_ddot": 0,
        "tle_line1": "1 36632U 93036BEW 25342.16003469  .00003995  00000+0  11898-2 0  9990",
        "tle_line2": "2 36632  74.0032 300.8928 0031760  49.8090 310.5839 14.43133085651491"
      },
      "geometry": {
        "type": "Point",
        "coordinates": [
          -66.96935856320427,
          -7.591913627795408
        ]
      }
    },
    {
      "type": "Feature",
      "properties": {
        "norad_id": 37084,
        "name": "COSMOS 2251 DEB",
        "group": "cosmos-2251-debris",
        "lat": 34.60989596620697,
        "lon": 175.96959452928834,
        "alt_km": 620.6782826653944,
        "timestamp": "2025-12-11T05:00:26.705788+00:00",
        "meta_object_name": "COSMOS 2251 DEB",
        "meta_object_id": "1993-036BFE",
        "meta_epoch": "2025-12-08T19:15:18.077184",
        "meta_mean_motion": 15.00891112,
        "meta_eccentricity": 0.00979748,
        "meta_inclination": 74.0259,
        "meta_ra_of_asc_node": 169.4673,
        "meta_arg_of_pericenter": 250.8811,
        "meta_mean_anomaly": 108.175,
        "meta_ephemeris_type": 0,
        "meta_classification_type": "U",
        "meta_norad_cat_id": 37084,
        "meta_element_set_no": 999,
        "meta_rev_at_epoch": 66208,
        "meta_bstar": 0.00080064992,
        "meta_mean_motion_dot": 0.00011267,
        "meta_mean_motion_ddot": 0,
        "tle_line1": "1 37084U 93036BFE 25342.80229256  .00011267  00000+0  80065-3 0  9991",
        "tle_line2": "2 37084  74.0259 169.4673 0097974 250.8811 108.1750 15.00891112662080"
      },
      "geometry": {
        "type": "Point",
        "coordinates": [
          175.96959452928834,
          34.60989596620697
        ]
      }
    },
    {
      "type": "Feature",
      "properties": {
        "norad_id": 37085,
        "name": "COSMOS 2251 DEB",
        "group": "cosmos-2251-debris",
        "lat": -36.370249644065204,
        "lon": 51.63099592398865,
        "alt_km": 463.99229035465305,
        "timestamp": "2025-12-11T05:00:26.705798+00:00",
        "meta_object_name": "COSMOS 2251 DEB",
        "meta_object_id": "1993-036BFF",
        "meta_epoch": "2025-12-02T23:36:37.668384",
        "meta_mean_motion": 15.39020756,
        "meta_eccentricity": 0.0022856,
        "meta_inclination": 73.9503,
        "meta_ra_of_asc_node": 237.2473,
        "meta_arg_of_pericenter": 76.375,
        "meta_mean_anomaly": 284,
        "meta_ephemeris_type": 0,
        "meta_classification_type": "U",
        "meta_norad_cat_id": 37085,
        "meta_element_set_no": 999,
        "meta_rev_at_epoch": 66987,
        "meta_bstar": 0.0028642077,
        "meta_mean_motion_dot": 0.00113322,
        "meta_mean_motion_ddot": 0,
        "tle_line1": "1 37085U 93036BFF 25336.98376931  .00113322  00000+0  28642-2 0  9994",
        "tle_line2": "2 37085  73.9503 237.2473 0022856  76.3750 284.0000 15.39020756669879"
      },
      "geometry": {
        "type": "Point",
        "coordinates": [
          51.63099592398865,
          -36.370249644065204
        ]
      }
    },
    {
      "type": "Feature",
      "properties": {
        "norad_id": 37089,
        "name": "COSMOS 2251 DEB",
        "group": "cosmos-2251-debris",
        "lat": 48.91010711575966,
        "lon": -50.52652632578353,
        "alt_km": 759.523282008151,
        "timestamp": "2025-12-11T05:00:26.705808+00:00",
        "meta_object_name": "COSMOS 2251 DEB",
        "meta_object_id": "1993-036BFK",
        "meta_epoch": "2025-12-09T17:42:06.763392",
        "meta_mean_motion": 14.52845175,
        "meta_eccentricity": 0.01352804,
        "meta_inclination": 74.0366,
        "meta_ra_of_asc_node": 151.4105,
        "meta_arg_of_pericenter": 252.1975,
        "meta_mean_anomaly": 106.439,
        "meta_ephemeris_type": 0,
        "meta_classification_type": "U",
        "meta_norad_cat_id": 37089,
        "meta_element_set_no": 999,
        "meta_rev_at_epoch": 66066,
        "meta_bstar": 0.0037030969,
        "meta_mean_motion_dot": 0.00017193,
        "meta_mean_motion_ddot": 0,
        "tle_line1": "1 37089U 93036BFK 25343.73757828  .00017193  00000+0  37031-2 0  9998",
        "tle_line2": "2 37089  74.0366 151.4105 0135280 252.1975 106.4390 14.52845175660661"
      },
      "geometry": {
        "type": "Point",
        "coordinates": [
          -50.52652632578353,
          48.91010711575966
        ]
      }
    }
  ]
}